GSAT0101 (PRN E11)      
1 37846U 11060A   16291.36555002 -.00000001  00000-0  00000+0 0  9992
2 37846  55.6448  78.5216 0001397 359.8543   0.1316  1.70473701 31069
GSAT0102 (PRN E12)      
1 37847U 11060B   16288.37080105  .00000017  00000-0  00000+0 0  9993
2 37847  55.6431  78.6048 0002101 303.3178  60.2001  1.70475365 31020
GSAT0103 (PRN E19)      
1 38857U 12055A   16291.41056195  .00000005  00000-0  00000-0 0  9999
2 38857  54.9213 198.7592 0002945 234.3607 125.6671  1.70473671 24980
GSAT0104 (PRN E20)      
1 38858U 12055B   16290.75836043  .00000005  00000-0  00000-0 0  9994
2 38858  54.9221 198.7759 0001916 233.2236 126.8103  1.70473776 24976
GSAT0201 (PRN E18)      
1 40128U 14050A   16291.50675391 -.00000053  00000-0  00000-0 0  9999
2 40128  50.1643  54.9475 1602310  55.1162 318.8707  1.85519642 12865
GSAT0202 (PRN E14)      
1 40129U 14050B   16291.77520961 -.00000055  00000-0  00000+0 0  9992
2 40129  50.2201  53.9247 1602973  56.1981 318.0018  1.85520283 14972
GSAT0203 (PRN E26)      
1 40544U 15017A   16292.32289334 -.00000004  00000-0  00000+0 0  9999
2 40544  55.4340  78.8207 0003089 193.7750 166.2011  1.70475358  9695
GSAT0204 (PRN E22)      
1 40545U 15017B   16290.93302597  .00000002  00000-0  00000-0 0  9990
2 40545  55.4400  78.8699 0003393 150.4891 209.5182  1.70475483  9680
GSAT0205 (PRN E24)      
1 40889U 15045A   16291.75668801 -.00000033  00000-0  00000+0 0  9990
2 40889  57.1811 318.7229 0002950 303.1634  56.8602  1.70474643  6843
GSAT0206 (PRN E30)      
1 40890U 15045B   16290.80351807 -.00000027  00000-0  00000-0 0  9996
2 40890  57.1803 318.7467 0002707 271.0764  88.9503  1.70474699  6855
GSAT0209 (PRN E09)      
1 41174U 15079A   16288.63066542 -.00000001  00000-0  00000-0 0  9998
2 41174  54.9340 198.5214 0004562 289.6924  70.2961  1.70473094  4724
GSAT0208 (PRN E08)      
1 41175U 15079B   16291.19698251  .00000005  00000-0  00000+0 0  9994
2 41175  54.9320 198.4511 0003486 288.9740  71.0432  1.70473007  5181
GSAT0211 (PRN E02)      
1 41549U 16030A   16287.79569229 -.00000013  00000-0  00000-0 0  9991
2 41549  57.3223 318.5495 0004891 266.2950  93.7186  1.70474597  2431
GSAT0210 (PRN E01)      
1 41550U 16030B   16292.19504357 -.00000034  00000-0  00000+0 0  9996
2 41550  57.3189 318.4324 0005063 247.3853 112.6100  1.70474468  2498
